NORAD_CAT_ID,OBJECT_NAME,OBJECT_TYPE,EPOCH,MEAN_MOTION,ECCENTRICITY,INCLINATION,RA_OF_ASC_NODE,ARG_OF_PERICENTER,MEAN_ANOMALY,BSTAR,MEAN_MOTION_DOT,MEAN_MOTION_DDOT,TLE_LINE0,TLE_LINE1,TLE_LINE2,SEMIMAJOR_AXIS,PERIOD,APOGEE,PERIGEE,DECAYED
52845.0,STARLINK-4168,PAYLOAD,2023-09-23 18:34:28,15.08846219,0.0001264,53.217,105.0869,89.0547,271.059,0.00013433,1.851e-05,0.0,0 STARLINK-4168,1 52845U 22062R   23266.77394217  .00001851  00000-0  13433-3 0  9997,2 52845  53.2170 105.0869 0001264  89.0547 271.0590 15.08846219 70723,6917.861,95.437,540.601,538.852,0.0
52845.0,STARLINK-4168,PAYLOAD,2023-09-24 12:03:43,15.08842044,0.0001257,53.2166,101.8168,86.6256,273.488,8.127e-05,1.006e-05,0.0,0 STARLINK-4168,1 52845U 22062R   23267.50258376  .00001006  00000-0  81270-4 0  9991,2 52845  53.2166 101.8168 0001257  86.6256 273.4880 15.08842044 70344,6917.874,95.437,540.609,538.87,0.0
52845.0,STARLINK-4168,PAYLOAD,2023-09-24 18:25:15,15.08844757,0.0001236,53.2165,100.6281,87.1315,272.9818,0.00010443,1.375e-05,0.0,0 STARLINK-4168,1 52845U 22062R   23267.76754198  .00001375  00000-0  10443-3 0  9994,2 52845  53.2165 100.6281 0001236  87.1315 272.9818 15.08844757 70871,6917.866,95.437,540.586,538.876,0.0
52845.0,STARLINK-4168,PAYLOAD,2023-09-25 05:32:57,15.08846511,0.0001464,53.2168,98.546,82.8684,277.2474,0.00018962,2.732e-05,0.0,0 STARLINK-4168,1 52845U 22062R   23268.23122118  .00002732  00000-0  18962-3 0  9990,2 52845  53.2168  98.5460 0001464  82.8684 277.2474 15.08846511 70452,6917.86,95.437,540.738,538.713,0.0
52845.0,STARLINK-4168,PAYLOAD,2023-09-25 19:51:25,15.08842107,0.0001348,53.2173,95.8729,97.1561,262.9584,0.00010216,1.338e-05,0.0,0 STARLINK-4168,1 52845U 22062R   23268.82738257  .00001338  00000-0  10216-3 0  9997,2 52845  53.2173  95.8729 0001348  97.1561 262.9584 15.08842107 71035,6917.874,95.437,540.671,538.806,0.0
52845.0,STARLINK-4168,PAYLOAD,2023-09-25 21:26:48,15.08844698,0.0001401,53.2174,95.574,93.4723,266.6429,0.00014481,2.018e-05,0.0,0 STARLINK-4168,1 52845U 22062R   23268.89362124  .00002018  00000-0  14481-3 0  9994,2 52845  53.2174  95.5740 0001401  93.4723 266.6429 15.08844698 70557,6917.866,95.437,540.7,538.762,0.0
52845.0,STARLINK-4168,PAYLOAD,2023-09-25 23:02:11,15.08847979,0.000144,53.2172,95.2761,89.8406,270.2751,0.00019646,2.841e-05,0.0,0 STARLINK-4168,1 52845U 22062R   23268.95986091  .00002841  00000-0  19646-3 0  9998,2 52845  53.2172  95.2761 0001440  89.8406 270.2751 15.08847979 70560,6917.856,95.437,540.717,538.725,0.0
52845.0,STARLINK-4168,PAYLOAD,2023-09-26 18:06:50,15.08834703,0.0001325,53.2162,91.706,87.1888,272.9256,-2.7882e-05,-7.32e-06,0.0,0 STARLINK-4168,1 52845U 22062R   23269.75475038 -.00000732  00000-0 -27882-4 0  9992,2 52845  53.2162  91.7060 0001325  87.1888 272.9256 15.08834703 71177,6917.897,95.438,540.678,538.845,0.0
52845.0,STARLINK-4168,PAYLOAD,2023-09-26 21:17:36,15.08838292,0.0001379,53.2164,91.1109,87.6427,272.4723,2.0462e-05,3.8e-07,0.0,0 STARLINK-4168,1 52845U 22062R   23269.88722881  .00000038  00000-0  20462-4 0  9991,2 52845  53.2164  91.1109 0001379  87.6427 272.4723 15.08838292 70709,6917.886,95.438,540.705,538.797,0.0
52845.0,STARLINK-4168,PAYLOAD,2023-09-27 05:14:32,15.08838662,0.0001389,53.2166,89.6236,88.7349,271.3802,6.6132e-05,7.65e-06,0.0,0 STARLINK-4168,1 52845U 22062R   23270.21842976  .00000765  00000-0  66132-4 0  9999,2 52845  53.2166  89.6236 0001389  88.7349 271.3802 15.08838662 70752,6917.884,95.438,540.71,538.789,0.0
52845.0,STARLINK-4168,PAYLOAD,2023-09-27 19:33:00,15.08847126,0.0001322,53.2158,86.948,89.0214,271.093,0.00029633,4.432e-05,0.0,0 STARLINK-4168,1 52845U 22062R   23270.81458825  .00004432  00000-0  29633-3 0  9990,2 52845  53.2158  86.9480 0001322  89.0214 271.0930 15.08847126 71335,6917.859,95.437,540.638,538.809,0.0
52845.0,STARLINK-4168,PAYLOAD,2023-09-27 21:08:23,15.08850566,0.0001291,53.2157,86.6513,90.3244,269.7896,0.00047183,7.231e-05,0.0,0 STARLINK-4168,1 52845U 22062R   23270.88082793  .00007231  00000-0  47183-3 0  9994,2 52845  53.2157  86.6513 0001291  90.3244 269.7896 15.08850566 70854,6917.848,95.437,540.606,538.82,0.0
52845.0,STARLINK-4168,PAYLOAD,2023-09-28 17:48:24,15.08842549,0.000143,53.2168,82.7815,91.4573,268.6583,0.00014795,2.068e-05,0.0,0 STARLINK-4168,1 52845U 22062R   23271.74195027  .00002068  00000-0  14795-3 0  9991,2 52845  53.2168  82.7815 0001430  91.4573 268.6583 15.08842549 71472,6917.873,95.437,540.727,538.748,0.0
52845.0,STARLINK-4168,PAYLOAD,2023-09-29 22:25:21,15.08835673,0.0001956,53.2163,77.4427,50.7005,309.416,-5.282e-05,-1.129e-05,0.0,0 STARLINK-4168,1 52845U 22062R   23272.93427754 -.00001129  00000-0 -52820-4 0  9999,2 52845  53.2163  77.4427 0001956  50.7005 309.4160 15.08835673 71653,6917.894,95.438,541.112,538.405,0.0
52845.0,STARLINK-4168,PAYLOAD,2023-09-30 17:29:58,15.08843074,0.0001352,53.2163,73.866,84.4142,275.7005,0.00019818,2.868e-05,0.0,0 STARLINK-4168,1 52845U 22062R   23273.72915437  .00002868  00000-0  19818-3 0  9995,2 52845  53.2163  73.8660 0001352  84.4142 275.7005 15.08843074 71778,6917.871,95.437,540.671,538.801,0.0
52845.0,STARLINK-4168,PAYLOAD,2023-10-01 20:31:31,15.088652,0.0001474,53.2169,68.8082,81.3859,278.73,0.00063328,9.812e-05,0.0,0 STARLINK-4168,1 52845U 22062R   23274.85522553  .00009812  00000-0  63328-3 0  9994,2 52845  53.2169  68.8082 0001474  81.3859 278.7300 15.08865200 71453,6917.803,95.436,540.688,538.649,0.0
52845.0,STARLINK-4168,PAYLOAD,2023-10-02 02:53:04,15.08845472,0.0002023,53.2177,67.6169,84.0466,276.0756,4.8221e-05,4.79e-06,0.0,0 STARLINK-4168,1 52845U 22062R   23275.12019202  .00000479  00000-0  48221-4 0  9993,2 52845  53.2177  67.6169 0002023  84.0466 276.0756 15.08845472 71983,6917.864,95.437,541.128,538.329,0.0
52845.0,STARLINK-4168,PAYLOAD,2023-10-02 17:11:32,15.08846091,0.0001429,53.2165,64.9447,92.5422,267.5734,7.6814e-05,9.35e-06,0.0,0 STARLINK-4168,1 52845U 22062R   23275.71634891  .00000935  00000-0  76814-4 0  9991,2 52845  53.2165  64.9447 0001429  92.5422 267.5734 15.08846091 71589,6917.862,95.437,540.715,538.738,0.0
52845.0,STARLINK-4168,PAYLOAD,2023-10-03 10:40:47,15.08833744,0.0001299,53.217,61.6717,81.3787,278.7352,-0.00018469,-3.225e-05,0.0,0 STARLINK-4168,1 52845U 22062R   23276.44499171 -.00003225  00000-0 -18469-3 0  9990,2 52845  53.2170  61.6717 0001299  81.3787 278.7352 15.08833744 72182,6917.9,95.438,540.663,538.866,0.0
52845.0,STARLINK-4168,PAYLOAD,2023-10-03 13:51:33,15.08838533,0.0001387,53.2172,61.0776,86.766,273.3491,-0.00010017,-1.882e-05,0.0,0 STARLINK-4168,1 52845U 22062R   23276.57747281 -.00001882  00000-0 -10017-3 0  9990,2 52845  53.2172  61.0776 0001387  86.7660 273.3491 15.08838533 71714,6917.885,95.438,540.709,538.79,0.0
52845.0,STARLINK-4168,PAYLOAD,2023-10-03 18:37:44,15.0880236,0.000173,53.2187,60.1888,77.5846,282.5339,0.0012262,0.00019261,0.0,0 STARLINK-4168,1 52845U 22062R   23276.77621472  .00019261  00000-0  12262-2 0  9996,2 52845  53.2187  60.1888 0001730  77.5846 282.5339 15.08802360 72230,6917.995,95.44,541.057,538.664,0.0
52845.0,STARLINK-4168,PAYLOAD,2023-10-04 13:42:20,15.08846933,0.0001735,53.2195,56.6208,96.1496,263.9694,0.00015405,2.165e-05,0.0,0 STARLINK-4168,1 52845U 22062R   23277.57107020  .00002165  00000-0  15405-3 0  9991,2 52845  53.2195  56.6208 0001735  96.1496 263.9694 15.08846933 71867,6917.859,95.437,540.924,538.524,0.0
52845.0,STARLINK-4168,PAYLOAD,2023-10-04 18:28:29,15.08859405,0.0001247,53.2175,55.7262,77.7781,282.335,0.00045951,7.037e-05,0.0,0 STARLINK-4168,1 52845U 22062R   23277.76978487  .00007037  00000-0  45951-3 0  9997,2 52845  53.2175  55.7262 0001247  77.7781 282.3350 15.08859405 72385,6917.821,95.436,540.549,538.823,0.0
52845.0,STARLINK-4168,PAYLOAD,2023-10-05 02:25:25,15.08842393,0.0001468,53.2171,54.2407,84.8322,275.2838,0.0001131,1.513e-05,0.0,0 STARLINK-4168,1 52845U 22062R   23278.10099137  .00001513  00000-0  11310-3 0  9997,2 52845  53.2171  54.2407 0001468  84.8322 275.2838 15.08842393 72437,6917.873,95.437,540.754,538.723,0.0
52845.0,STARLINK-4168,PAYLOAD,2023-10-05 13:33:07,15.08840752,0.0001717,53.2176,52.1589,84.5667,275.5521,0.00011114,1.481e-05,0.0,0 STARLINK-4168,1 52845U 22062R   23278.56467358  .00001481  00000-0  11114-3 0  9997,2 52845  53.2176  52.1589 0001717  84.5667 275.5521 15.08840752 72019,6917.878,95.438,540.931,538.555,0.0
52845.0,STARLINK-4168,PAYLOAD,2023-10-05 16:43:53,15.08848789,0.000158,53.2172,51.5635,84.966,275.1513,0.00019927,2.886e-05,0.0,0 STARLINK-4168,1 52845U 22062R   23278.69715254  .00002886  00000-0  19927-3 0  9992,2 52845  53.2172  51.5635 0001580  84.9660 275.1513 15.08848789 72032,6917.854,95.437,540.812,538.626,0.0
52845.0,STARLINK-4168,PAYLOAD,2023-10-05 21:30:02,15.08857907,0.0001531,53.217,50.6695,83.0997,277.017,0.00044869,6.864e-05,0.0,0 STARLINK-4168,1 52845U 22062R   23278.89586614  .00006864  00000-0  44869-3 0  9993,2 52845  53.2170  50.6695 0001531  83.0997 277.0170 15.08857907 72554,6917.826,95.436,540.75,538.632,0.0
52845.0,STARLINK-4168,PAYLOAD,2023-10-06 08:37:45,15.08822562,0.0001205,53.2179,48.5888,89.2496,270.8635,-0.00034603,-5.788e-05,0.0,0 STARLINK-4168,1 52845U 22062R   23279.35955850 -.00005788  00000-0 -34603-3 0  9998,2 52845  53.2179  48.5888 0001205  89.2496 270.8635 15.08822562 72627,6917.934,95.439,540.632,538.965,0.0
52845.0,STARLINK-4168,PAYLOAD,2023-10-06 13:23:55,15.08832342,0.0001491,53.2161,47.6994,82.7098,277.4063,-5.138e-06,-3.7e-06,0.0,0 STARLINK-4168,1 52845U 22062R   23279.55827795 -.00000370  00000-0 -51380-5 0  9991,2 52845  53.2161  47.6994 0001491  82.7098 277.4063 15.08832342 72163,6917.904,95.438,540.8,538.737,0.0
52845.0,STARLINK-4168,PAYLOAD,2023-10-06 14:59:18,15.08830497,0.0001598,53.2174,47.3977,105.0071,255.1098,0.00013568,1.871e-05,0.0,0 STARLINK-4168,1 52845U 22062R   23279.62451774  .00001871  00000-0  13568-3 0  9998,2 52845  53.2174  47.3977 0001598 105.0071 255.1098 15.08830497 72668,6917.909,95.438,540.88,538.669,0.0
